{"spkid": "20606441", "covariance": {"labels": ["e", "q", "tp", "node", "peri", "i"], "elements": [{"title": "eccentricity", "value": ".4191575033784618", "units": null, "name": "e", "sigma": 3.89977636931353e-08, "label": "e"}, {"label": "q", "sigma": 6.78623138540487e-08, "name": "q", "title": "perihelion distance", "value": "1.04297358994274", "units": "au"}, {"sigma": 3.08717771772511e-05, "name": "tp", "title": "time of perihelion passage", "value": "2457848.653135002716", "units": "TDB", "label": "tp"}, {"label": "node", "name": "om", "sigma": 7.31633754628693e-06, "units": "deg", "value": "133.5527681361277", "title": "longitude of the ascending node"}, {"name": "w", "sigma": 1.09724435947465e-05, "units": "deg", "title": "argument of perihelion", "value": "196.9869788138603", "label": "peri"}, {"sigma": 1.06405908083054e-05, "name": "i", "units": "deg", "title": "inclination", "value": "36.47712892732483", "label": "i"}], "data": [["1.520825573065622E-15", "-2.579460873775215E-15", "-6.084779574038903E-13", "3.258363053156843E-14", "-1.421932585325537E-13", "-1.469549540948678E-13"], ["-2.579460873775215E-15", "4.605293641625408E-15", "6.80057019211554E-13", "-5.365416420300667E-14", "1.794850342132151E-13", "2.424482355909596E-13"], ["-6.084779574038903E-13", "6.80057019211554E-13", "9.530666260818419E-10", "-2.22235304901927E-11", "2.389850607320815E-10", "1.315283840564413E-10"], ["3.258363053156843E-14", "-5.365416420300667E-14", "-2.22235304901927E-11", "5.35287950912079E-11", "-4.88109717837017E-11", "-4.08680013286018E-11"], ["-1.421932585325537E-13", "1.794850342132151E-13", "2.389850607320815E-10", "-4.88109717837017E-11", "1.203945184398924E-10", "6.941691714562203E-11"], ["-1.469549540948678E-13", "2.424482355909596E-13", "1.315283840564413E-10", "-4.08680013286018E-11", "6.941691714562203E-11", "1.132221727497925E-10"]], "epoch": "2458287.5"}, "elements": [{"title": "eccentricity", "value": ".4196342379667929", "units": null, "sigma": "3.9112E-8", "name": "e", "label": "e"}, {"label": "a", "name": "a", "sigma": "2.6907E-8", "units": "au", "value": "1.79579702625311", "title": "semi-major axis"}, {"units": "au", "value": "1.042219109598354", "title": "perihelion distance", "name": "q", "sigma": "6.7904E-8", "label": "q"}, {"title": "inclination; angle with respect to x-y ecliptic plane", "value": "36.48603560074888", "units": "deg", "sigma": "1.0642E-5", "name": "i", "label": "i"}, {"sigma": "7.3112E-6", "name": "om", "units": "deg", "title": "longitude of the ascending node", "value": "133.523367419409", "label": "node"}, {"label": "peri", "name": "w", "sigma": "1.0955E-5", "units": "deg", "value": "197.0189744640606", "title": "argument of perihelion"}, {"label": "M", "name": "ma", "sigma": "2.1198E-5", "units": "deg", "title": "mean anomaly", "value": "292.585176678654"}, {"label": "tp", "name": "tp", "sigma": "5.529E-5", "title": "time of perihelion passage", "value": "2461365.102792529749", "units": "TDB"}, {"label": "period", "units": "d", "title": "sidereal orbital period", "value": "878.9907381088784", "sigma": "1.9756E-5", "name": "per"}, {"label": "n", "name": "n", "sigma": "9.205E-9", "units": "deg/d", "title": "mean motion", "value": ".4095606294720795"}, {"label": "Q", "value": "2.549374942907867", "title": "aphelion distance", "units": "au", "sigma": "3.8199E-8", "name": "ad"}], "epoch": "2461200.5"}